[{"spaceTrack":{"CCSDS_OMM_VERS":"2.0","COMMENT":"GENERATED VIA SPACE-TRACK.ORG API","CREATION_DATE":"2020-09-20 14:46:10","ORIGINATOR":"18 SPCS","OBJECT_NAME":"STARLINK-1034","OBJECT_ID":"2019-074AC","CENTER_NAME":"EARTH","REF_FRAME":"TEME","TIME_SYSTEM":"UTC","MEAN_ELEMENT_THEORY":"SGP4","EPOCH":"2020-09-20 14:00:01.000224","MEAN_MOTION":15.0558745,"ECCENTRICITY":0.0001778,"INCLINATION":52.9982,"RA_OF_ASC_NODE":167.4883,"ARG_OF_PERICENTER":86.3129,"MEAN_ANOMALY":208.839,"EPHEMERIS_TYPE":0,"CLASSIFICATION_TYPE":"U","NORAD_CAT_ID":44739,"ELEMENT_SET_NO":999,"REV_AT_EPOCH":4778,"BSTAR":-0.0042005,"MEAN_MOTION_DOT":-0.0006097,"MEAN_MOTION_DDOT":0,"SEMIMAJOR_AXIS":6927.84,"PERIOD":95.643,"APOAPSIS":550.936,"PERIAPSIS":548.473,"OBJECT_TYPE":"PAYLOAD","RCS_SIZE":"LARGE","COUNTRY_CODE":"US","LAUNCH_DATE":"2019-11-11","SITE":"AFETR","DECAY_DATE":null,"DECAYED":0,"FILE":2829291,"GP_ID":161775177,"TLE_LINE0":"0 STARLINK-1034","TLE_LINE1":"1 44739U 19074AC  20264.58334491 -.00060970  00000-0 -42005-2 0  9996","TLE_LINE2":"2 44739  52.9982 167.4883 0001778  86.3129 208.8390 15.05587450 47789"},"version":"v1.0","launch":"5eb87d39ffd86e000604b37d","longitude":-120.48406103306117,"latitude":-47.14316613057488,"height_km":566.9024310667737,"velocity_kms":7.576872505147759,"id":"5eed7714096e59000698565f"},{"spaceTrack":{"CCSDS_OMM_VERS":"2.0","COMMENT":"GENERATED VIA SPACE-TRACK.ORG API","CREATION_DATE":"2020-09-20 06:36:10","ORIGINATOR":"18 SPCS","OBJECT_NAME":"STARLINK-1032","OBJECT_ID":"2019-074AA","CENTER_NAME":"EARTH","REF_FRAME":"TEME","TIME_SYSTEM":"UTC","MEAN_ELEMENT_THEORY":"SGP4","EPOCH":"2020-09-20 04:00:00.999936","MEAN_MOTION":15.05553781,"ECCENTRICITY":0.000154,"INCLINATION":52.9999,"RA_OF_ASC_NODE":169.359,"ARG_OF_PERICENTER":80.2367,"MEAN_ANOMALY":7.2686,"EPHEMERIS_TYPE":0,"CLASSIFICATION_TYPE":"U","NORAD_CAT_ID":44737,"ELEMENT_SET_NO":999,"REV_AT_EPOCH":4772,"BSTAR":0.0028173,"MEAN_MOTION_DOT":0.00040979,"MEAN_MOTION_DDOT":0,"SEMIMAJOR_AXIS":6927.943,"PERIOD":95.645,"APOAPSIS":550.875,"PERIAPSIS":548.741,"OBJECT_TYPE":"PAYLOAD","RCS_SIZE":"LARGE","COUNTRY_CODE":"US","LAUNCH_DATE":"2019-11-11","SITE":"AFETR","DECAY_DATE":null,"DECAYED":0,"FILE":2828815,"GP_ID":161766184,"TLE_LINE0":"0 STARLINK-1032","TLE_LINE1":"1 44737U 19074AA  20264.16667824  .00040979  00000-0  28173-2 0  9992","TLE_LINE2":"2 44737  52.9999 169.3590 0001540  80.2367   7.2686 15.05553781 47728"},"version":"v1.0","launch":"5eb87d39ffd86e000604b37d","longitude":116.91203721405142,"latitude":-4.678923982629354,"height_km":551.5421020339809,"velocity_kms":7.586793675883637,"id":"5eed7714096e590006985661"},{"spaceTrack":{"CCSDS_OMM_VERS":"2.0","COMMENT":"GENERATED VIA SPACE-TRACK.ORG API","CREATION_DATE":"2020-09-20 06:36:10","ORIGINATOR":"18 SPCS","OBJECT_NAME":"STARLINK-1027","OBJECT_ID":"2019-074V","CENTER_NAME":"EARTH","REF_FRAME":"TEME","TIME_SYSTEM":"UTC","MEAN_ELEMENT_THEORY":"SGP4","EPOCH":"2020-09-20 04:00:00.999936","MEAN_MOTION":15.05556795,"ECCENTRICITY":0.0001558,"INCLINATION":53.0004,"RA_OF_ASC_NODE":169.3583,"ARG_OF_PERICENTER":69.8971,"MEAN_ANOMALY":197.5428,"EPHEMERIS_TYPE":0,"CLASSIFICATION_TYPE":"U","NORAD_CAT_ID":44732,"ELEMENT_SET_NO":999,"REV_AT_EPOCH":4772,"BSTAR":0.0026808,"MEAN_MOTION_DOT":0.00038972,"MEAN_MOTION_DDOT":0,"SEMIMAJOR_AXIS":6927.934,"PERIOD":95.645,"APOAPSIS":550.878,"PERIAPSIS":548.719,"OBJECT_TYPE":"PAYLOAD","RCS_SIZE":"LARGE","COUNTRY_CODE":"US","LAUNCH_DATE":"2019-11-11","SITE":"AFETR","DECAY_DATE":null,"DECAYED":0,"FILE":2828815,"GP_ID":161765690,"TLE_LINE0":"0 STARLINK-1027","TLE_LINE1":"1 44732U 19074V   20264.16667824  .00038972  00000-0  26808-2 0  9990","TLE_LINE2":"2 44732  53.0004 169.3583 0001558  69.8971 197.5428 15.05556795 47722"},"version":"v1.0","launch":"5eb87d39ffd86e000604b37d","longitude":-63.26410654498607,"latitude":4.446967920159817,"height_km":549.6442639347906,"velocity_kms":7.5888623902198065,"id":"5eed7714096e590006985662"},{"spaceTrack":{"CCSDS_OMM_VERS":"2.0","COMMENT":"GENERATED VIA SPACE-TRACK.ORG API","CREATION_DATE":"2020-09-20 14:46:10","ORIGINATOR":"18 SPCS","OBJECT_NAME":"STARLINK-1055","OBJECT_ID":"2019-074AZ","CENTER_NAME":"EARTH","REF_FRAME":"TEME","TIME_SYSTEM":"UTC","MEAN_ELEMENT_THEORY":"SGP4","EPOCH":"2020-09-20 14:00:01.000224","MEAN_MOTION":15.05599405,"ECCENTRICITY":0.000171,"INCLINATION":53.0008,"RA_OF_ASC_NODE":187.4797,"ARG_OF_PERICENTER":83.6895,"MEAN_ANOMALY":49.7467,"EPHEMERIS_TYPE":0,"CLASSIFICATION_TYPE":"U","NORAD_CAT_ID":44760,"ELEMENT_SET_NO":999,"REV_AT_EPOCH":4752,"BSTAR":-0.0013354,"MEAN_MOTION_DOT":-0.00019693,"MEAN_MOTION_DDOT":0,"SEMIMAJOR_AXIS":6927.803,"PERIOD":95.642,"APOAPSIS":550.853,"PERIAPSIS":548.483,"OBJECT_TYPE":"PAYLOAD","RCS_SIZE":"LARGE","COUNTRY_CODE":"US","LAUNCH_DATE":"2019-11-11","SITE":"AFETR","DECAY_DATE":null,"DECAYED":0,"FILE":2829296,"GP_ID":161775767,"TLE_LINE0":"0 STARLINK-1055","TLE_LINE1":"1 44760U 19074AZ  20264.58334491 -.00019693  00000-0 -13354-2 0  9991","TLE_LINE2":"2 44760  53.0008 187.4797 0001710  83.6895  49.7467 15.05599405 47528"},"version":"v1.0","launch":"5eb87d39ffd86e000604b37d","longitude":99.73910859878933,"latitude":36.477074844519464,"height_km":551.7461875426507,"velocity_kms":7.591054607406754,"id":"5eed7714096e590006985663"},{"spaceTrack":{"CCSDS_OMM_VERS":"2.0","COMMENT":"GENERATED VIA SPACE-TRACK.ORG API","CREATION_DATE":"2020-09-20 02:31:57","ORIGINATOR":"18 SPCS","OBJECT_NAME":"STARLINK-1038","OBJECT_ID":"2019-074AG","CENTER_NAME":"EARTH","REF_FRAME":"TEME","TIME_SYSTEM":"UTC","MEAN_ELEMENT_THEORY":"SGP4","EPOCH":"2020-09-19 20:00:01.000224","MEAN_MOTION":15.05582138,"ECCENTRICITY":0.0001392,"INCLINATION":52.9982,"RA_OF_ASC_NODE":190.854,"ARG_OF_PERICENTER":81.4953,"MEAN_ANOMALY":34.5544,"EPHEMERIS_TYPE":0,"CLASSIFICATION_TYPE":"U","NORAD_CAT_ID":44743,"ELEMENT_SET_NO":999,"REV_AT_EPOCH":180,"BSTAR":0.0000054368,"MEAN_MOTION_DOT":-0.000002,"MEAN_MOTION_DDOT":0,"SEMIMAJOR_AXIS":6927.856,"PERIOD":95.644,"APOAPSIS":550.685,"PERIAPSIS":548.756,"OBJECT_TYPE":"PAYLOAD","RCS_SIZE":"LARGE","COUNTRY_CODE":"US","LAUNCH_DATE":"2019-11-11","SITE":"AFETR","DECAY_DATE":null,"DECAYED":0,"FILE":2828634,"GP_ID":161762105,"TLE_LINE0":"0 STARLINK-1038","TLE_LINE1":"1 44743U 19074AG  20263.83334491 -.00000200 +00000-0 +54368-5 0  9995","TLE_LINE2":"2 44743 052.9982 190.8540 0001392 081.4953 034.5544 15.05582138001803"},"version":"v1.0","launch":"5eb87d39ffd86e000604b37d","longitude":161.91438618183582,"latitude":-32.50061389477346,"height_km":560.5293381594865,"velocity_kms":7.580620638693534,"id":"5eed7714096e590006985664"},{"spaceTrack":{"CCSDS_OMM_VERS":"2.0","COMMENT":"GENERATED VIA SPACE-TRACK.ORG API","CREATION_DATE":"2020-09-20 02:31:57","ORIGINATOR":"18 SPCS","OBJECT_NAME":"STARLINK-1042","OBJECT_ID":"2019-074AL","CENTER_NAME":"EARTH","REF_FRAME":"TEME","TIME_SYSTEM":"UTC","MEAN_ELEMENT_THEORY":"SGP4","EPOCH":"2020-09-19 20:00:01.000224","MEAN_MOTION":15.05582351,"ECCENTRICITY":0.0001427,"INCLINATION":53.0002,"RA_OF_ASC_NODE":190.8503,"ARG_OF_PERICENTER":73.4543,"MEAN_ANOMALY":276.5952,"EPHEMERIS_TYPE":0,"CLASSIFICATION_TYPE":"U","NORAD_CAT_ID":44747,"ELEMENT_SET_NO":999,"REV_AT_EPOCH":179,"BSTAR":0.0000081657,"MEAN_MOTION_DOT":-0.0000016,"MEAN_MOTION_DDOT":0,"SEMIMAJOR_AXIS":6927.855,"PERIOD":95.644,"APOAPSIS":550.709,"PERIAPSIS":548.732,"OBJECT_TYPE":"PAYLOAD","RCS_SIZE":"LARGE","COUNTRY_CODE":"US","LAUNCH_DATE":"2019-11-11","SITE":"AFETR","DECAY_DATE":null,"DECAYED":0,"FILE":2828634,"GP_ID":161759213,"TLE_LINE0":"0 STARLINK-1042","TLE_LINE1":"1 44747U 19074AL  20263.83334491 -.00000160 +00000-0 +81657-5 0  9995","TLE_LINE2":"2 44747 053.0002 190.8503 0001427 073.4543 276.5952 15.05582351001792"},"version":"v1.0","launch":"5eb87d39ffd86e000604b37d","longitude":53.29396706244068,"latitude":52.737511125728695,"height_km":555.2430933433125,"velocity_kms":7.590879883246417,"id":"5eed7714096e590006985665"},{"spaceTrack":{"CCSDS_OMM_VERS":"2.0","COMMENT":"GENERATED VIA SPACE-TRACK.ORG API","CREATION_DATE":"2020-09-20 14:46:10","ORIGINATOR":"18 SPCS","OBJECT_NAME":"STARLINK-1031","OBJECT_ID":"2019-074Z","CENTER_NAME":"EARTH","REF_FRAME":"TEME","TIME_SYSTEM":"UTC","MEAN_ELEMENT_THEORY":"SGP4","EPOCH":"2020-09-20 14:00:01.000224","MEAN_MOTION":15.05429128,"ECCENTRICITY":0.000137,"INCLINATION":52.9994,"RA_OF_ASC_NODE":167.4891,"ARG_OF_PERICENTER":76.3999,"MEAN_ANOMALY":164.7786,"EPHEMERIS_TYPE":0,"CLASSIFICATION_TYPE":"U","NORAD_CAT_ID":44736,"ELEMENT_SET_NO":999,"REV_AT_EPOCH":4779,"BSTAR":0.015158,"MEAN_MOTION_DOT":0.00226892,"MEAN_MOTION_DDOT":0,"SEMIMAJOR_AXIS":6928.325,"PERIOD":95.653,"APOAPSIS":551.139,"PERIAPSIS":549.241,"OBJECT_TYPE":"PAYLOAD","RCS_SIZE":"LARGE","COUNTRY_CODE":"US","LAUNCH_DATE":"2019-11-11","SITE":"AFETR","DECAY_DATE":null,"DECAYED":0,"FILE":2829291,"GP_ID":161775683,"TLE_LINE0":"0 STARLINK-1031","TLE_LINE1":"1 44736U 19074Z   20264.58334491  .00226892  00000-0  15158-1 0  9996","TLE_LINE2":"2 44736  52.9994 167.4891 0001370  76.3999 164.7786 15.05429128 47797"},"version":"v1.0","launch":"5eb87d39ffd86e000604b37d","longitude":159.3730151771886,"latitude":-43.8144776699146,"height_km":565.7238182278052,"velocity_kms":7.577613442497069,"id":"5eed7714096e590006985666"}]